[{"OBJECT_NAME":"STARLINK-34819","OBJECT_ID":"2025-161AB","EPOCH":"2026-03-09T22:38:59.390016","MEAN_MOTION":15.30207515,"ECCENTRICITY":0.000106,"INCLINATION":53.161,"RA_OF_ASC_NODE":293.3789,"ARG_OF_PERICENTER":78.2475,"MEAN_ANOMALY":281.8644,"EPHEMERIS_TYPE":0,"CLASSIFICATION_TYPE":"U","NORAD_CAT_ID":65040,"ELEMENT_SET_NO":999,"REV_AT_EPOCH":3426,"BSTAR":0.0012268651,"MEAN_MOTION_DOT":0.00036162,"MEAN_MOTION_DDOT":0},{"OBJECT_NAME":"CZ-4B DEB","OBJECT_ID":"1999-057H","EPOCH":"2026-03-09T17:25:29.363520","MEAN_MOTION":15.25756771,"ECCENTRICITY":0.00339549,"INCLINATION":98.6728,"RA_OF_ASC_NODE":149.1557,"ARG_OF_PERICENTER":175.409,"MEAN_ANOMALY":184.7463,"EPHEMERIS_TYPE":0,"CLASSIFICATION_TYPE":"U","NORAD_CAT_ID":26121,"ELEMENT_SET_NO":999,"REV_AT_EPOCH":41150,"BSTAR":0.00075758105,"MEAN_MOTION_DOT":0.00019602,"MEAN_MOTION_DDOT":0}]
